[{"OBJECT_NAME":"BEIDOU-2 IGSO-1 (C06)","OBJECT_ID":"2010-036A","EPOCH":"2026-02-01T19:07:41.024640","MEAN_MOTION":1.00260948,"ECCENTRICITY":0.00529429,"INCLINATION":54.2928,"RA_OF_ASC_NODE":164.1862,"ARG_OF_PERICENTER":217.401,"MEAN_ANOMALY":144.2759,"EPHEMERIS_TYPE":0,"CLASSIFICATION_TYPE":"U","NORAD_CAT_ID":36828,"ELEMENT_SET_NO":999,"REV_AT_EPOCH":5674,"BSTAR":0,"MEAN_MOTION_DOT":-1.5e-6,"MEAN_MOTION_DDOT":0},{"OBJECT_NAME":"BEIDOU-2 G4 (C04)","OBJECT_ID":"2010-057A","EPOCH":"2026-02-01T21:05:37.225248","MEAN_MOTION":1.00269261,"ECCENTRICITY":0.00101614,"INCLINATION":3.3102,"RA_OF_ASC_NODE":69.719,"ARG_OF_PERICENTER":204.3573,"MEAN_ANOMALY":334.3095,"EPHEMERIS_TYPE":0,"CLASSIFICATION_TYPE":"U","NORAD_CAT_ID":37210,"ELEMENT_SET_NO":999,"REV_AT_EPOCH":5593,"BSTAR":0,"MEAN_MOTION_DOT":-1.25e-6,"MEAN_MOTION_DDOT":0},{"OBJECT_NAME":"BEIDOU-2 IGSO-2 (C07)","OBJECT_ID":"2010-068A","EPOCH":"2026-02-01T22:31:37.388352","MEAN_MOTION":1.00268568,"ECCENTRICITY":0.00474235,"INCLINATION":47.7877,"RA_OF_ASC_NODE":273.5098,"ARG_OF_PERICENTER":213.9215,"MEAN_ANOMALY":90.8288,"EPHEMERIS_TYPE":0,"CLASSIFICATION_TYPE":"U","NORAD_CAT_ID":37256,"ELEMENT_SET_NO":999,"REV_AT_EPOCH":5543,"BSTAR":0,"MEAN_MOTION_DOT":-1.69e-6,"MEAN_MOTION_DDOT":0},{"OBJECT_NAME":"BEIDOU-2 IGSO-3 (C08)","OBJECT_ID":"2011-013A","EPOCH":"2026-01-31T17:16:37.242336","MEAN_MOTION":1.00257905,"ECCENTRICITY":0.00329456,"INCLINATION":62.2151,"RA_OF_ASC_NODE":41.4373,"ARG_OF_PERICENTER":190.1608,"MEAN_ANOMALY":263.8989,"EPHEMERIS_TYPE":0,"CLASSIFICATION_TYPE":"U","NORAD_CAT_ID":37384,"ELEMENT_SET_NO":999,"REV_AT_EPOCH":5429,"BSTAR":0,"MEAN_MOTION_DOT":-1.47e-6,"MEAN_MOTION_DDOT":0},{"OBJECT_NAME":"BEIDOU-2 IGSO-4 (C09)","OBJECT_ID":"2011-038A","EPOCH":"2026-01-23T21:02:01.874112","MEAN_MOTION":1.00273505,"ECCENTRICITY":0.01515141,"INCLINATION":54.5902,"RA_OF_ASC_NODE":166.9718,"ARG_OF_PERICENTER":230.3527,"MEAN_ANOMALY":136.4289,"EPHEMERIS_TYPE":0,"CLASSIFICATION_TYPE":"U","NORAD_CAT_ID":37763,"ELEMENT_SET_NO":999,"REV_AT_EPOCH":5320,"BSTAR":0,"MEAN_MOTION_DOT":7.0e-8,"MEAN_MOTION_DDOT":0},{"OBJECT_NAME":"BEIDOU-2 IGSO-5 (C10)","OBJECT_ID":"2011-073A","EPOCH":"2026-01-28T16:01:33.332160","MEAN_MOTION":1.00280002,"ECCENTRICITY":0.01087064,"INCLINATION":47.9306,"RA_OF_ASC_NODE":273.2746,"ARG_OF_PERICENTER":221.5041,"MEAN_ANOMALY":328.4434,"EPHEMERIS_TYPE":0,"CLASSIFICATION_TYPE":"U","NORAD_CAT_ID":37948,"ELEMENT_SET_NO":999,"REV_AT_EPOCH":5173,"BSTAR":0,"MEAN_MOTION_DOT":-1.13e-6,"MEAN_MOTION_DDOT":0},{"OBJECT_NAME":"BEIDOU-2 G5 (C05)","OBJECT_ID":"2012-008A","EPOCH":"2026-02-01T22:19:30.144864","MEAN_MOTION":1.00272202,"ECCENTRICITY":0.00143157,"INCLINATION":3.2358,"RA_OF_ASC_NODE":70.4837,"ARG_OF_PERICENTER":241.5064,"MEAN_ANOMALY":213.6789,"EPHEMERIS_TYPE":0,"CLASSIFICATION_TYPE":"U","NORAD_CAT_ID":38091,"ELEMENT_SET_NO":999,"REV_AT_EPOCH":5101,"BSTAR":0,"MEAN_MOTION_DOT":4.6e-7,"MEAN_MOTION_DDOT":0},{"OBJECT_NAME":"BEIDOU-2 M3 (C11)","OBJECT_ID":"2012-018A","EPOCH":"2026-01-30T17:27:33.444288","MEAN_MOTION":1.86229811,"ECCENTRICITY":0.00228664,"INCLINATION":55.8763,"RA_OF_ASC_NODE":309.5104,"ARG_OF_PERICENTER":278.1374,"MEAN_ANOMALY":81.6365,"EPHEMERIS_TYPE":0,"CLASSIFICATION_TYPE":"U","NORAD_CAT_ID":38250,"ELEMENT_SET_NO":999,"REV_AT_EPOCH":9338,"BSTAR":0,"MEAN_MOTION_DOT":-6.8e-7,"MEAN_MOTION_DDOT":0},{"OBJECT_NAME":"BEIDOU-2 M4 (C12)","OBJECT_ID":"2012-018B","EPOCH":"2026-01-30T15:49:48.202752","MEAN_MOTION":1.86229522,"ECCENTRICITY":0.0014053,"INCLINATION":55.7772,"RA_OF_ASC_NODE":308.7376,"ARG_OF_PERICENTER":283.9774,"MEAN_ANOMALY":75.9006,"EPHEMERIS_TYPE":0,"CLASSIFICATION_TYPE":"U","NORAD_CAT_ID":38251,"ELEMENT_SET_NO":999,"REV_AT_EPOCH":9338,"BSTAR":0,"MEAN_MOTION_DOT":-6.6e-7,"MEAN_MOTION_DDOT":0},{"OBJECT_NAME":"BEIDOU-2 M6 (C14)","OBJECT_ID":"2012-050B","EPOCH":"2026-01-31T23:32:38.067360","MEAN_MOTION":1.8623083,"ECCENTRICITY":0.00129872,"INCLINATION":56.4228,"RA_OF_ASC_NODE":67.399,"ARG_OF_PERICENTER":340.5188,"MEAN_ANOMALY":19.5038,"EPHEMERIS_TYPE":0,"CLASSIFICATION_TYPE":"U","NORAD_CAT_ID":38775,"ELEMENT_SET_NO":999,"REV_AT_EPOCH":9077,"BSTAR":0,"MEAN_MOTION_DOT":-1.9e-7,"MEAN_MOTION_DDOT":0},{"OBJECT_NAME":"BEIDOU-2 G6 (C02)","OBJECT_ID":"2012-059A","EPOCH":"2026-02-01T17:18:35.612928","MEAN_MOTION":1.00274518,"ECCENTRICITY":0.00092597,"INCLINATION":4.0778,"RA_OF_ASC_NODE":74.9873,"ARG_OF_PERICENTER":295.0743,"MEAN_ANOMALY":105.4246,"EPHEMERIS_TYPE":0,"CLASSIFICATION_TYPE":"U","NORAD_CAT_ID":38953,"ELEMENT_SET_NO":999,"REV_AT_EPOCH":4855,"BSTAR":0,"MEAN_MOTION_DOT":-1.86e-6,"MEAN_MOTION_DDOT":0},{"OBJECT_NAME":"BEIDOU-3S IGSO-1S (C31)","OBJECT_ID":"2015-019A","EPOCH":"2026-01-27T13:54:45.681696","MEAN_MOTION":1.0028218,"ECCENTRICITY":0.00359462,"INCLINATION":49.4603,"RA_OF_ASC_NODE":297.1615,"ARG_OF_PERICENTER":192.2184,"MEAN_ANOMALY":302.2696,"EPHEMERIS_TYPE":0,"CLASSIFICATION_TYPE":"U","NORAD_CAT_ID":40549,"ELEMENT_SET_NO":999,"REV_AT_EPOCH":3966,"BSTAR":0,"MEAN_MOTION_DOT":-1.8e-6,"MEAN_MOTION_DDOT":0},{"OBJECT_NAME":"BEIDOU-3S M2S (C58)","OBJECT_ID":"2015-037A","EPOCH":"2026-01-31T22:30:48.994848","MEAN_MOTION":1.862318,"ECCENTRICITY":0.00102055,"INCLINATION":54.992,"RA_OF_ASC_NODE":306.7392,"ARG_OF_PERICENTER":276.5881,"MEAN_ANOMALY":83.3374,"EPHEMERIS_TYPE":0,"CLASSIFICATION_TYPE":"U","NORAD_CAT_ID":40748,"ELEMENT_SET_NO":999,"REV_AT_EPOCH":7158,"BSTAR":0,"MEAN_MOTION_DOT":-6.4e-7,"MEAN_MOTION_DDOT":0},{"OBJECT_NAME":"BEIDOU-3S M1S (C57)","OBJECT_ID":"2015-037B","EPOCH":"2026-01-28T22:34:35.404320","MEAN_MOTION":1.86253913,"ECCENTRICITY":0.00041627,"INCLINATION":54.9909,"RA_OF_ASC_NODE":306.8311,"ARG_OF_PERICENTER":15.5617,"MEAN_ANOMALY":344.4842,"EPHEMERIS_TYPE":0,"CLASSIFICATION_TYPE":"U","NORAD_CAT_ID":40749,"ELEMENT_SET_NO":999,"REV_AT_EPOCH":7153,"BSTAR":0,"MEAN_MOTION_DOT":-6.4e-7,"MEAN_MOTION_DDOT":0},{"OBJECT_NAME":"BEIDOU-3S IGSO-2S (C56)","OBJECT_ID":"2015-053A","EPOCH":"2026-01-27T16:14:57.122592","MEAN_MOTION":1.00254296,"ECCENTRICITY":0.0061515,"INCLINATION":49.4373,"RA_OF_ASC_NODE":260.4556,"ARG_OF_PERICENTER":187.1638,"MEAN_ANOMALY":17.4903,"EPHEMERIS_TYPE":0,"CLASSIFICATION_TYPE":"U","NORAD_CAT_ID":40938,"ELEMENT_SET_NO":999,"REV_AT_EPOCH":3794,"BSTAR":0,"MEAN_MOTION_DOT":-7.9e-7,"MEAN_MOTION_DDOT":0},{"OBJECT_NAME":"BEIDOU-2 IGSO-6 (C13)","OBJECT_ID":"2016-021A","EPOCH":"2026-01-31T17:40:15.140640","MEAN_MOTION":1.00283772,"ECCENTRICITY":0.00605375,"INCLINATION":60.0385,"RA_OF_ASC_NODE":39.3935,"ARG_OF_PERICENTER":232.6565,"MEAN_ANOMALY":219.123,"EPHEMERIS_TYPE":0,"CLASSIFICATION_TYPE":"U","NORAD_CAT_ID":41434,"ELEMENT_SET_NO":999,"REV_AT_EPOCH":3611,"BSTAR":0,"MEAN_MOTION_DOT":-1.31e-6,"MEAN_MOTION_DDOT":0},{"OBJECT_NAME":"BEIDOU-2 G7 (C03)","OBJECT_ID":"2016-037A","EPOCH":"2026-02-01T22:34:13.735200","MEAN_MOTION":1.00271706,"ECCENTRICITY":0.00057287,"INCLINATION":1.8817,"RA_OF_ASC_NODE":68.2667,"ARG_OF_PERICENTER":2.0271,"MEAN_ANOMALY":150.9355,"EPHEMERIS_TYPE":0,"CLASSIFICATION_TYPE":"U","NORAD_CAT_ID":41586,"ELEMENT_SET_NO":999,"REV_AT_EPOCH":553,"BSTAR":0,"MEAN_MOTION_DOT":-3.64e-6,"MEAN_MOTION_DDOT":0}]
