BEIDOU-2 IGSO-1         
1 36828U 10036A   26032.79700260 -.00000150  00000+0  00000+0 0  9996
2 36828  54.2928 164.1862 0052942 217.4010 144.2759  1.00260948 56748
BEIDOU-2 G4             
1 37210U 10057A   26032.87890307 -.00000125  00000+0  00000+0 0  9998
2 37210   3.3102  69.7190 0010161 204.3573 334.3095  1.00269261 55935
BEIDOU-2 IGSO-2         
1 37256U 10068A   26032.93862718 -.00000169  00000+0  00000+0 0  9990
2 37256  47.7877 273.5098 0047423 213.9215  90.8288  1.00268568 55430
BEIDOU-2 IGSO-3         
1 37384U 11013A   26031.71987549 -.00000147  00000+0  00000+0 0  9994
2 37384  62.2151  41.4373 0032945 190.1608 263.8989  1.00257905 54298
BEIDOU-2 IGSO-4         
1 37763U 11038A   26023.87641058  .00000007  00000+0  00000+0 0  9996
2 37763  54.5902 166.9718 0151514 230.3527 136.4289  1.00273505 53206
BEIDOU-2 IGSO-5         
1 37948U 11073A   26028.66774690 -.00000113  00000+0  00000+0 0  9990
2 37948  47.9306 273.2746 0108706 221.5041 328.4434  1.00280002 51737
BEIDOU-2 G5             
1 38091U 12008A   26032.93021001  .00000046  00000+0  00000+0 0  9999
2 38091   3.2358  70.4837 0014315 241.5064 213.6789  1.00272202 51018
BEIDOU-2 M3             
1 38250U 12018A   26030.72747042 -.00000068  00000+0  00000+0 0  9997
2 38250  55.8763 309.5104 0022866 278.1374  81.6365  1.86229811 93382
BEIDOU-2 M4             
1 38251U 12018B   26030.65958568 -.00000066  00000+0  00000+0 0  9995
2 38251  55.7772 308.7376 0014053 283.9774  75.9006  1.86229522 93388
BEIDOU-2 M6             
1 38775U 12050B   26031.98099615 -.00000019  00000+0  00000+0 0  9996
2 38775  56.4228  67.3990 0012987 340.5188  19.5038  1.86230830 90779
BEIDOU-2 G6             
1 38953U 12059A   26032.72124552 -.00000186  00000+0  00000+0 0  9990
2 38953   4.0778  74.9873 0009259 295.0743 105.4246  1.00274518 48551
BEIDOU-3S IGSO-1S       
1 40549U 15019A   26027.57969539 -.00000180  00000+0  00000+0 0  9996
2 40549  49.4603 297.1615 0035946 192.2184 302.2696  1.00282180 39669
BEIDOU-3S M2S           
1 40748U 15037A   26031.93806707 -.00000064  00000+0  00000+0 0  9990
2 40748  54.9920 306.7392 0010205 276.5881  83.3374  1.86231800 71587
BEIDOU-3S M1S           
1 40749U 15037B   26028.94068755 -.00000064  00000+0  00000+0 0  9991
2 40749  54.9909 306.8311 0004162  15.5617 344.4842  1.86253913 71535
BEIDOU-3S IGSO-2S       
1 40938U 15053A   26027.67705003 -.00000079  00000+0  00000+0 0  9998
2 40938  49.4373 260.4556 0061515 187.1638  17.4903  1.00254296 37942
BEIDOU-2 IGSO-6         
1 41434U 16021A   26031.73628635 -.00000131  00000+0  00000+0 0  9992
2 41434  60.0385  39.3935 0060537 232.6565 219.1230  1.00283772 36111
BEIDOU-2 G7             
1 41586U 16037A   26032.94043675 -.00000364  00000+0  00000+0 0  9994
2 41586   1.8817  68.2667 0005728   2.0271 150.9355  1.00271706  5535
